ONEWEB-0522             
1 54140U 22138AD  25240.86874521 -.00000043  00000+0 -14080-3 0  9998
2 54140  87.9274   3.0537 0001709  96.6241 263.5086 13.19725703138253
ONEWEB-0523             
1 54141U 22138AE  25241.29108501  .00000151  00000+0  34022-3 0  9991
2 54141  87.9295 332.6238 0002380 119.2318 240.9054 13.20770146140776
ONEWEB-0524             
1 54142U 22138AF  25241.28003592  .00000134  00000+0  29722-3 0  9997
2 54142  87.9293 332.6265 0001503 128.1126 232.0143 13.20772874140778
ONEWEB-0525             
1 54143U 22138AG  25241.26678200  .00000072  00000+0  14698-3 0  9997
2 54143  87.9278   2.9956 0001642  89.4297 270.7024 13.19726233138329
ONEWEB-0526             
1 54144U 22138AH  25241.29993903  .00000072  00000+0  14640-3 0  9998
2 54144  87.9276   2.9763 0001719  97.7323 262.4005 13.19727192138301
ONEWEB-0529             
1 54145U 22138AJ  25241.30311285  .00000008  00000+0 -12768-4 0  9998
2 54145  87.9268   3.0166 0001618  91.6007 268.5311 13.19726668138328
ONEWEB-0531             
1 54146U 22138AK  25241.26581620  .00000057  00000+0  10921-3 0  9997
2 54146  87.9288 332.6217 0002150 124.7968 235.3368 13.20773934140771
ONEWEB-0535             
1 54147U 22138AL  25241.26044736 -.00000251  00000+0 -65815-3 0  9990
2 54147  87.9274   2.9797 0002053 108.0873 252.0483 13.19725416138332
ONEWEB-0536             
1 54148U 22138AM  25241.25318794  .00000072  00000+0  14457-3 0  9993
2 54148  87.9292 332.6710 0002026 130.9787 229.1522 13.20773616140765
ONEWEB-0527             
1 54642U 22166A   25241.21031853  .00000051  00000+0  91784-4 0  9993
2 54642  87.9236 302.2659 0001848  97.6843 262.4500 13.21828663132963
ONEWEB-0528             
1 54643U 22166B   25241.21663642 -.00000005  00000+0 -44120-4 0  9994
2 54643  87.9239 302.2665 0001826  95.1798 264.9544 13.21828698132976
ONEWEB-0539             
1 54644U 22166C   25241.17724421  .00000055  00000+0  10123-3 0  9991
2 54644  87.9228 302.2436 0002109  93.0962 267.0413 13.21825504132967
ONEWEB-0540             
1 54645U 22166D   25241.25936762  .00000015  00000+0  38780-5 0  9991
2 54645  87.9237 302.2634 0002131  92.8480 267.2898 13.21828335132969
ONEWEB-0542             
1 54646U 22166E   25241.18668926  .00000245  00000+0  56064-3 0  9996
2 54646  87.9228 302.2392 0002385  94.3217 265.8189 13.21829505132964
ONEWEB-0545             
1 54647U 22166F   25241.22925489 -.00000010  00000+0 -56555-4 0  9990
2 54647  87.9233 302.2488 0002386  87.7295 272.4112 13.21828350132934
ONEWEB-0580             
1 54648U 22166G   25241.20247304 -.00000001  00000+0 -34957-4 0  9994
2 54648  87.9236 302.2523 0002367  96.4635 263.6768 13.21827315132975
