[{"OBJECT_NAME":"ONEWEB-0522","OBJECT_ID":"2022-138AD","EPOCH":"2025-08-28T20:50:59.586144","MEAN_MOTION":13.19725703,"ECCENTRICITY":0.00017099,"INCLINATION":87.9274,"RA_OF_ASC_NODE":3.0537,"ARG_OF_PERICENTER":96.6241,"MEAN_ANOMALY":263.5086,"EPHEMERIS_TYPE":0,"CLASSIFICATION_TYPE":"U","NORAD_CAT_ID":54140,"ELEMENT_SET_NO":999,"REV_AT_EPOCH":13825,"BSTAR":-0.00014080156,"MEAN_MOTION_DOT":-4.3e-7,"MEAN_MOTION_DDOT":0},{"OBJECT_NAME":"ONEWEB-0523","OBJECT_ID":"2022-138AE","EPOCH":"2025-08-29T06:59:09.744864","MEAN_MOTION":13.20770146,"ECCENTRICITY":0.00023804,"INCLINATION":87.9295,"RA_OF_ASC_NODE":332.6238,"ARG_OF_PERICENTER":119.2318,"MEAN_ANOMALY":240.9054,"EPHEMERIS_TYPE":0,"CLASSIFICATION_TYPE":"U","NORAD_CAT_ID":54141,"ELEMENT_SET_NO":999,"REV_AT_EPOCH":14077,"BSTAR":0.00034021935,"MEAN_MOTION_DOT":1.51e-6,"MEAN_MOTION_DDOT":0},{"OBJECT_NAME":"ONEWEB-0524","OBJECT_ID":"2022-138AF","EPOCH":"2025-08-29T06:43:15.103488","MEAN_MOTION":13.20772874,"ECCENTRICITY":0.00015031,"INCLINATION":87.9293,"RA_OF_ASC_NODE":332.6265,"ARG_OF_PERICENTER":128.1126,"MEAN_ANOMALY":232.0143,"EPHEMERIS_TYPE":0,"CLASSIFICATION_TYPE":"U","NORAD_CAT_ID":54142,"ELEMENT_SET_NO":999,"REV_AT_EPOCH":14077,"BSTAR":0.00029722375,"MEAN_MOTION_DOT":1.34e-6,"MEAN_MOTION_DDOT":0},{"OBJECT_NAME":"ONEWEB-0525","OBJECT_ID":"2022-138AG","EPOCH":"2025-08-29T06:24:09.964800","MEAN_MOTION":13.19726233,"ECCENTRICITY":0.00016429,"INCLINATION":87.9278,"RA_OF_ASC_NODE":2.9956,"ARG_OF_PERICENTER":89.4297,"MEAN_ANOMALY":270.7024,"EPHEMERIS_TYPE":0,"CLASSIFICATION_TYPE":"U","NORAD_CAT_ID":54143,"ELEMENT_SET_NO":999,"REV_AT_EPOCH":13832,"BSTAR":0.00014698163,"MEAN_MOTION_DOT":7.2e-7,"MEAN_MOTION_DDOT":0},{"OBJECT_NAME":"ONEWEB-0526","OBJECT_ID":"2022-138AH","EPOCH":"2025-08-29T07:11:54.732192","MEAN_MOTION":13.19727192,"ECCENTRICITY":0.00017193,"INCLINATION":87.9276,"RA_OF_ASC_NODE":2.9763,"ARG_OF_PERICENTER":97.7323,"MEAN_ANOMALY":262.4005,"EPHEMERIS_TYPE":0,"CLASSIFICATION_TYPE":"U","NORAD_CAT_ID":54144,"ELEMENT_SET_NO":999,"REV_AT_EPOCH":13830,"BSTAR":0.0001463972,"MEAN_MOTION_DOT":7.2e-7,"MEAN_MOTION_DDOT":0},{"OBJECT_NAME":"ONEWEB-0529","OBJECT_ID":"2022-138AJ","EPOCH":"2025-08-29T07:16:28.950240","MEAN_MOTION":13.19726668,"ECCENTRICITY":0.00016181,"INCLINATION":87.9268,"RA_OF_ASC_NODE":3.0166,"ARG_OF_PERICENTER":91.6007,"MEAN_ANOMALY":268.5311,"EPHEMERIS_TYPE":0,"CLASSIFICATION_TYPE":"U","NORAD_CAT_ID":54145,"ELEMENT_SET_NO":999,"REV_AT_EPOCH":13832,"BSTAR":-1.2768086e-5,"MEAN_MOTION_DOT":8.0e-8,"MEAN_MOTION_DDOT":0},{"OBJECT_NAME":"ONEWEB-0531","OBJECT_ID":"2022-138AK","EPOCH":"2025-08-29T06:22:46.519680","MEAN_MOTION":13.20773934,"ECCENTRICITY":0.000215,"INCLINATION":87.9288,"RA_OF_ASC_NODE":332.6217,"ARG_OF_PERICENTER":124.7968,"MEAN_ANOMALY":235.3368,"EPHEMERIS_TYPE":0,"CLASSIFICATION_TYPE":"U","NORAD_CAT_ID":54146,"ELEMENT_SET_NO":999,"REV_AT_EPOCH":14077,"BSTAR":0.00010920541,"MEAN_MOTION_DOT":5.7e-7,"MEAN_MOTION_DDOT":0},{"OBJECT_NAME":"ONEWEB-0535","OBJECT_ID":"2022-138AL","EPOCH":"2025-08-29T06:15:02.651904","MEAN_MOTION":13.19725416,"ECCENTRICITY":0.00020535,"INCLINATION":87.9274,"RA_OF_ASC_NODE":2.9797,"ARG_OF_PERICENTER":108.0873,"MEAN_ANOMALY":252.0483,"EPHEMERIS_TYPE":0,"CLASSIFICATION_TYPE":"U","NORAD_CAT_ID":54147,"ELEMENT_SET_NO":999,"REV_AT_EPOCH":13833,"BSTAR":-0.0006581502,"MEAN_MOTION_DOT":-2.51e-6,"MEAN_MOTION_DDOT":0},{"OBJECT_NAME":"ONEWEB-0536","OBJECT_ID":"2022-138AM","EPOCH":"2025-08-29T06:04:35.438016","MEAN_MOTION":13.20773616,"ECCENTRICITY":0.00020269,"INCLINATION":87.9292,"RA_OF_ASC_NODE":332.671,"ARG_OF_PERICENTER":130.9787,"MEAN_ANOMALY":229.1522,"EPHEMERIS_TYPE":0,"CLASSIFICATION_TYPE":"U","NORAD_CAT_ID":54148,"ELEMENT_SET_NO":999,"REV_AT_EPOCH":14076,"BSTAR":0.00014456988,"MEAN_MOTION_DOT":7.2e-7,"MEAN_MOTION_DDOT":0},{"OBJECT_NAME":"ONEWEB-0527","OBJECT_ID":"2022-166A","EPOCH":"2025-08-29T05:02:51.520992","MEAN_MOTION":13.21828663,"ECCENTRICITY":0.0001848,"INCLINATION":87.9236,"RA_OF_ASC_NODE":302.2659,"ARG_OF_PERICENTER":97.6843,"MEAN_ANOMALY":262.45,"EPHEMERIS_TYPE":0,"CLASSIFICATION_TYPE":"U","NORAD_CAT_ID":54642,"ELEMENT_SET_NO":999,"REV_AT_EPOCH":13296,"BSTAR":9.1783797e-5,"MEAN_MOTION_DOT":5.1e-7,"MEAN_MOTION_DDOT":0},{"OBJECT_NAME":"ONEWEB-0528","OBJECT_ID":"2022-166B","EPOCH":"2025-08-29T05:11:57.386688","MEAN_MOTION":13.21828698,"ECCENTRICITY":0.00018268,"INCLINATION":87.9239,"RA_OF_ASC_NODE":302.2665,"ARG_OF_PERICENTER":95.1798,"MEAN_ANOMALY":264.9544,"EPHEMERIS_TYPE":0,"CLASSIFICATION_TYPE":"U","NORAD_CAT_ID":54643,"ELEMENT_SET_NO":999,"REV_AT_EPOCH":13297,"BSTAR":-4.4120233e-5,"MEAN_MOTION_DOT":-5.0e-8,"MEAN_MOTION_DDOT":0},{"OBJECT_NAME":"ONEWEB-0539","OBJECT_ID":"2022-166C","EPOCH":"2025-08-29T04:15:13.899744","MEAN_MOTION":13.21825504,"ECCENTRICITY":0.00021099,"INCLINATION":87.9228,"RA_OF_ASC_NODE":302.2436,"ARG_OF_PERICENTER":93.0962,"MEAN_ANOMALY":267.0413,"EPHEMERIS_TYPE":0,"CLASSIFICATION_TYPE":"U","NORAD_CAT_ID":54644,"ELEMENT_SET_NO":999,"REV_AT_EPOCH":13296,"BSTAR":0.00010123199,"MEAN_MOTION_DOT":5.5e-7,"MEAN_MOTION_DDOT":0},{"OBJECT_NAME":"ONEWEB-0540","OBJECT_ID":"2022-166D","EPOCH":"2025-08-29T06:13:29.362368","MEAN_MOTION":13.21828335,"ECCENTRICITY":0.00021317,"INCLINATION":87.9237,"RA_OF_ASC_NODE":302.2634,"ARG_OF_PERICENTER":92.848,"MEAN_ANOMALY":267.2898,"EPHEMERIS_TYPE":0,"CLASSIFICATION_TYPE":"U","NORAD_CAT_ID":54645,"ELEMENT_SET_NO":999,"REV_AT_EPOCH":13296,"BSTAR":3.877994e-6,"MEAN_MOTION_DOT":1.5e-7,"MEAN_MOTION_DDOT":0},{"OBJECT_NAME":"ONEWEB-0542","OBJECT_ID":"2022-166E","EPOCH":"2025-08-29T04:28:49.952064","MEAN_MOTION":13.21829505,"ECCENTRICITY":0.00023853,"INCLINATION":87.9228,"RA_OF_ASC_NODE":302.2392,"ARG_OF_PERICENTER":94.3217,"MEAN_ANOMALY":265.8189,"EPHEMERIS_TYPE":0,"CLASSIFICATION_TYPE":"U","NORAD_CAT_ID":54646,"ELEMENT_SET_NO":999,"REV_AT_EPOCH":13296,"BSTAR":0.00056063917,"MEAN_MOTION_DOT":2.45e-6,"MEAN_MOTION_DDOT":0},{"OBJECT_NAME":"ONEWEB-0545","OBJECT_ID":"2022-166F","EPOCH":"2025-08-29T05:30:07.622496","MEAN_MOTION":13.2182835,"ECCENTRICITY":0.00023868,"INCLINATION":87.9233,"RA_OF_ASC_NODE":302.2488,"ARG_OF_PERICENTER":87.7295,"MEAN_ANOMALY":272.4112,"EPHEMERIS_TYPE":0,"CLASSIFICATION_TYPE":"U","NORAD_CAT_ID":54647,"ELEMENT_SET_NO":999,"REV_AT_EPOCH":13293,"BSTAR":-5.6554693e-5,"MEAN_MOTION_DOT":-1.0e-7,"MEAN_MOTION_DDOT":0},{"OBJECT_NAME":"ONEWEB-0580","OBJECT_ID":"2022-166G","EPOCH":"2025-08-29T04:51:33.670656","MEAN_MOTION":13.21827315,"ECCENTRICITY":0.0002367,"INCLINATION":87.9236,"RA_OF_ASC_NODE":302.2523,"ARG_OF_PERICENTER":96.4635,"MEAN_ANOMALY":263.6768,"EPHEMERIS_TYPE":0,"CLASSIFICATION_TYPE":"U","NORAD_CAT_ID":54648,"ELEMENT_SET_NO":999,"REV_AT_EPOCH":13297,"BSTAR":-3.4957144e-5,"MEAN_MOTION_DOT":-1.0e-8,"MEAN_MOTION_DDOT":0}]
